GLOBALSTAR M067 [+]     
1 32263U 07048A   23317.35602050 -.00000073  00000+0  18149-3 0  9998
2 32263  51.9734 298.3597 0000668 149.7130 358.3578 12.40634368737266
GLOBALSTAR M070 [+]     
1 32264U 07048B   23317.54745890 -.00000102  00000+0  94890-5 0  9992
2 32264  51.9733 100.3532 0000569 126.7879 308.8698 12.62281984740210
GLOBALSTAR M068 [-]     
1 32266U 07048D   23317.33742781 -.00000059  00000+0  24669-3 0  9993
2 32266  51.9889 275.8475 0000787 341.1316 183.3195 12.62771140744040
GLOBALSTAR M079 [+]     
1 37188U 10054A   23317.57354365 -.00000112  00000+0 -44743-4 0  9992
2 37188  52.0018 110.3098 0001140 103.8475 331.4130 12.62269893603003
GLOBALSTAR M074 [+]     
1 37189U 10054B   23317.42881627 -.00000115  00000+0 -61047-4 0  9992
2 37189  51.9994 110.1621 0000923 106.7234 271.1251 12.62271922603592
GLOBALSTAR M076 [+]     
1 37190U 10054C   23317.45910178 -.00000106  00000+0 -11639-4 0  9993
2 37190  52.0009 110.1898 0001324 125.2751 269.2262 12.62263809603310
GLOBALSTAR M077 [+]     
1 37191U 10054D   23317.59979632 -.00000106  00000+0 -13224-4 0  9991
2 37191  52.0075  66.4503 0000672 119.9612 253.4426 12.62266395603704
